{
  "norad_id": 59419,
  "name": "STARLINK-31415",
  "history": [
    {
      "epoch": "2026-03-28T16:02:44.618208Z",
      "apogee_km": 483.76428512622533,
      "perigee_km": 482.31685110645503,
      "latitude_deg": 7.052160560829478e-06,
      "longitude_deg": -117.37601211989912,
      "height_km": 482.91473538974714,
      "semi_major_axis_km": 6861.17756811634,
      "eccentricity": 0.00010548,
      "inclination_deg": 43.0033,
      "raan_deg": 309.3956,
      "arg_perigee_deg": 262.2643,
      "mean_anomaly_deg": 97.8089,
      "mean_motion_rev_day": 15.27582848
    },
    {
      "epoch": "2026-03-28T23:53:31.309728Z",
      "apogee_km": 483.70982662336064,
      "perigee_km": 482.34719915250025,
      "latitude_deg": -6.486717631385637e-05,
      "longitude_deg": 122.76232684091097,
      "height_km": 482.8311318104233,
      "semi_major_axis_km": 6861.16551288793,
      "eccentricity": 9.93e-05,
      "inclination_deg": 43.0031,
      "raan_deg": 307.5508,
      "arg_perigee_deg": 267.8199,
      "mean_anomaly_deg": 92.2538,
      "mean_motion_rev_day": 15.27586874
    },
    {
      "epoch": "2026-03-29T23:25:52.887648Z",
      "apogee_km": 483.6912809402929,
      "perigee_km": 482.4233322324362,
      "latitude_deg": 1.1014293090637113e-05,
      "longitude_deg": 123.16637443233131,
      "height_km": 482.7437235086063,
      "semi_major_axis_km": 6861.194306586364,
      "eccentricity": 9.24e-05,
      "inclination_deg": 43.0041,
      "raan_deg": 302.0114,
      "arg_perigee_deg": 278.192,
      "mean_anomaly_deg": 81.8827,
      "mean_motion_rev_day": 15.27577258
    },
    {
      "epoch": "2026-03-29T23:25:52.888512Z",
      "apogee_km": 483.69114371640626,
      "perigee_km": 482.423469456322,
      "latitude_deg": 9.467481483800071e-06,
      "longitude_deg": 123.16636917310964,
      "height_km": 482.74374305774063,
      "semi_major_axis_km": 6861.194306586364,
      "eccentricity": 9.238e-05,
      "inclination_deg": 43.0041,
      "raan_deg": 302.0114,
      "arg_perigee_deg": 278.192,
      "mean_anomaly_deg": 81.8827,
      "mean_motion_rev_day": 15.27577258
    },
    {
      "epoch": "2026-03-30T07:16:40.050048Z",
      "apogee_km": 483.7380171637087,
      "perigee_km": 482.3918493444053,
      "latitude_deg": -2.754366459065627e-05,
      "longitude_deg": 3.300682086618766,
      "height_km": 482.80498199628295,
      "semi_major_axis_km": 6861.201933254057,
      "eccentricity": 9.81e-05,
      "inclination_deg": 43.0039,
      "raan_deg": 300.1645,
      "arg_perigee_deg": 273.1287,
      "mean_anomaly_deg": 86.9452,
      "mean_motion_rev_day": 15.27574711
    },
    {
      "epoch": "2026-03-31T14:39:48.145824Z",
      "apogee_km": 483.6826429900111,
      "perigee_km": 482.4915344882056,
      "latitude_deg": -4.782247233908111e-07,
      "longitude_deg": -116.15657984868918,
      "height_km": 482.57052594332526,
      "semi_major_axis_km": 6861.224088739108,
      "eccentricity": 8.68e-05,
      "inclination_deg": 43.0036,
      "raan_deg": 292.7799,
      "arg_perigee_deg": 299.4869,
      "mean_anomaly_deg": 60.5896,
      "mean_motion_rev_day": 15.27567312
    },
    {
      "epoch": "2026-03-31T20:56:25.984608Z",
      "apogee_km": 483.70664285515795,
      "perigee_km": 482.4832851959718,
      "latitude_deg": 2.587972728363228e-05,
      "longitude_deg": 147.95079250709512,
      "height_km": 482.6317297329813,
      "semi_major_axis_km": 6861.231964025565,
      "eccentricity": 8.915e-05,
      "inclination_deg": 43.0036,
      "raan_deg": 291.3027,
      "arg_perigee_deg": 293.088,
      "mean_anomaly_deg": 66.9878,
      "mean_motion_rev_day": 15.27564682
    },
    {
      "epoch": "2026-04-02T20:01:06.229632Z",
      "apogee_km": 483.5727114428382,
      "perigee_km": 482.50964049625327,
      "latitude_deg": 1.0122669442827941e-05,
      "longitude_deg": 148.77057167208147,
      "height_km": 482.73831928718397,
      "semi_major_axis_km": 6861.178175969546,
      "eccentricity": 7.747e-05,
      "inclination_deg": 43.0032,
      "raan_deg": 280.2236,
      "arg_perigee_deg": 278.5879,
      "mean_anomaly_deg": 81.4885,
      "mean_motion_rev_day": 15.27582645
    },
    {
      "epoch": "2026-04-03T19:33:29.671200Z",
      "apogee_km": 483.714395159328,
      "perigee_km": 482.5370024802114,
      "latitude_deg": -5.618273618267639e-05,
      "longitude_deg": 149.16758074082205,
      "height_km": 483.0051782703635,
      "semi_major_axis_km": 6861.26269881977,
      "eccentricity": 8.58e-05,
      "inclination_deg": 43.0006,
      "raan_deg": 274.6851,
      "arg_perigee_deg": 259.904,
      "mean_anomaly_deg": 100.1714,
      "mean_motion_rev_day": 15.27554418
    },
    {
      "epoch": "2026-04-04T20:39:57.703392Z",
      "apogee_km": 483.9484644817885,
      "perigee_km": 482.1165322257284,
      "latitude_deg": 3.0185114368643472e-05,
      "longitude_deg": 125.60993105056068,
      "height_km": 483.1162536852873,
      "semi_major_axis_km": 6861.169498353758,
      "eccentricity": 0.0001335,
      "inclination_deg": 43.0022,
      "raan_deg": 268.7753,
      "arg_perigee_deg": 250.4191,
      "mean_anomaly_deg": 109.6517,
      "mean_motion_rev_day": 15.27585543
    },
    {
      "epoch": "2026-04-05T12:21:33.042528Z",
      "apogee_km": 483.7516431400345,
      "perigee_km": 482.42413334865705,
      "latitude_deg": 5.3670474947295054e-05,
      "longitude_deg": -114.12258611425878,
      "height_km": 482.97180282922807,
      "semi_major_axis_km": 6861.2248882443455,
      "eccentricity": 9.674e-05,
      "inclination_deg": 42.9996,
      "raan_deg": 265.0845,
      "arg_perigee_deg": 260.6655,
      "mean_anomaly_deg": 99.4088,
      "mean_motion_rev_day": 15.27567045
    },
    {
      "epoch": "2026-04-07T11:26:13.341120Z",
      "apogee_km": 483.73566204513554,
      "perigee_km": 482.3346106948875,
      "latitude_deg": 1.577888790139105e-05,
      "longitude_deg": -113.30436111087647,
      "height_km": 482.8470444478551,
      "semi_major_axis_km": 6861.172136370011,
      "eccentricity": 0.0001021,
      "inclination_deg": 43.0009,
      "raan_deg": 254.0041,
      "arg_perigee_deg": 267.1003,
      "mean_anomaly_deg": 92.9732,
      "mean_motion_rev_day": 15.27584662
    }
  ]
}